
ARKTIKA-M 1
1 47719U 21016A   26168.49069990 -.00000210  00000+0  00000+0 0  9999
2 47719  63.2922  57.5948 7288528 269.9420  14.6012  2.00622504 38796

ARKTIKA-M 2
1 58584U 23198A   26168.75920439  .00000145  00000+0  00000+0 0  9993
2 58584  63.2243 154.2920 6902344 267.4286  18.7609  2.00612717 18330

FENGYUN 2H
1 43491U 18050A   26170.05322661 -.00000137  00000+0  00000+0 0  9996
2 43491   3.0369  79.0493 0001941 138.7340 148.0521  1.00269392 29450

FENGYUN 3D
1 43010U 17072A   26170.26160236  .00000538  00000+0  27605-3 0  9995
2 43010  99.0130 144.7220 0002509  59.3043 300.8380 14.19741501445280

FENGYUN 3E
1 49008U 21062A   26170.31570411  .00000009  00000+0  25004-4 0  9993
2 49008  98.7490 173.7005 0002868  82.5557 277.5946 14.19904570256888

FENGYUN 3F
1 57490U 23111A   26170.29957274  .00000041  00000+0  39824-4 0  9998
2 57490  98.6835 240.2689 0001583  92.0771 268.0586 14.19939456149167

FENGYUN 3G
1 56232U 23055A   26170.29459103  .00020089  00000+0  32537-3 0  9993
2 56232  49.9936 335.1614 0007018 305.3203  54.7107 15.52710865180334

GEO-KOMPSAT-2A
1 43823U 18100A   26169.92030550 -.00000350  00000+0  00000+0 0  9995
2 43823   0.0487 155.6876 0001856 291.5734 279.4528  1.00269167 27648

GOES 17
1 43226U 18022A   26170.01972807 -.00000189  00000+0  00000+0 0  9997
2 43226   0.9428  85.6763 0000507  27.5592  71.5925  1.00269550 30447

GOES 18
1 51850U 22021A   26170.08165339  .00000090  00000+0  00000+0 0  9994
2 51850   0.0138 113.6382 0000358  29.2247  16.8308  1.00271434  6610

METEOR-M2 2
1 44387U 19038A   26170.28180983  .00000370  00000+0  17983-3 0  9992
2 44387  98.9146 157.5987 0002016  44.3231 315.8108 14.24367771361595

METEOR-M2 3
1 57166U 23091A   26170.27660271 -.00000012  00000+0  13651-4 0  9990
2 57166  98.6081 225.2122 0004463 150.1969 209.9465 14.24046982154817

METEOSAT-12 (MTG-I1)
1 54743U 22170C   26170.25128105 -.00000014  00000+0  00000+0 0  9999
2 54743   0.7410  23.3589 0003264  71.0263 263.1532  1.00273203 12992

METOP-C
1 43689U 18087A   26170.25005616  .00000068  00000+0  51101-4 0  9990
2 43689  98.6644 229.8160 0001835 126.8899 233.2447 14.21512608395122

NOAA 20 (JPSS-1)
1 43013U 17073A   26170.25689817  .00000033  00000+0  36434-4 0  9990
2 43013  98.7770 109.7012 0000338 113.0011 247.1200 14.19512061444763

NOAA 21 (JPSS-2)
1 54234U 22150A   26170.28972419  .00000049  00000+0  43895-4 0  9991
2 54234  98.7058 109.0437 0001787 149.2830 210.8452 14.19565802186841

SENTINEL-3B
1 43437U 18039A   26170.15334706  .00000072  00000+0  47868-4 0  9992
2 43437  98.6248 237.6575 0000717  92.4527 267.6735 14.26735196424403

TIANMU-1 03
1 55973U 23039A   26170.24897736  .00013194  00000+0  26005-3 0  9991
2 55973  97.5239 344.2983 0004141  93.8299 266.3424 15.47334894181150

TIANMU-1 04
1 55974U 23039B   26170.30230264  .00013419  00000+0  25899-3 0  9996
2 55974  97.5174 343.5077 0004836  90.1578 270.0226 15.47934969181179

TIANMU-1 05
1 55975U 23039C   26170.29451213  .00012783  00000+0  25266-3 0  9995
2 55975  97.5220 343.9598 0004064 110.1186 250.0501 15.47261435181147

TIANMU-1 06
1 55976U 23039D   26170.30581253  .00013350  00000+0  25854-3 0  9990
2 55976  97.5226 344.6096 0004388 105.0583 255.1153 15.47838672181173

TIANMU-1 07
1 57399U 23101A   26170.25865242  .00005047  00000+0  17725-3 0  9990
2 57399  97.2587 220.8796 0004170 117.3023 242.8643 15.29827848161962

TIANMU-1 08
1 57400U 23101B   26170.29069767  .00005184  00000+0  18194-3 0  9998
2 57400  97.2576 220.6812 0005648 110.0100 250.1749 15.29832936161960

TIANMU-1 09
1 57401U 23101C   26170.33947728  .00005314  00000+0  18628-3 0  9993
2 57401  97.2533 220.1435 0004679 121.8580 238.3117 15.29865065161972

TIANMU-1 10
1 57402U 23101D   26170.30715916  .00005205  00000+0  18265-3 0  9999
2 57402  97.2614 221.1646 0006263 120.6851 239.5008 15.29836300161968

TIANMU-1 11
1 58645U 23205A   26170.28151847  .00004525  00000+0  17330-3 0  9994
2 58645  97.3445 191.8056 0008685  10.1561 349.9852 15.27013784137844

TIANMU-1 12
1 58646U 23205B   26170.25193235  .00004572  00000+0  17532-3 0  9995
2 58646  97.3434 191.5317 0006465 356.0104   4.1082 15.26978595137821

TIANMU-1 13
1 58647U 23205C   26170.28431170  .00004642  00000+0  17880-3 0  9996
2 58647  97.3461 191.8365 0005652 333.1818  26.9128 15.26832225137825

TIANMU-1 14
1 58648U 23205D   26170.33499219  .00004605  00000+0  17712-3 0  9994
2 58648  97.3396 191.0665 0006607 337.1522  22.9422 15.26877240137835

TIANMU-1 19
1 58660U 23208A   26170.31231663  .00006753  00000+0  22387-3 0  9996
2 58660  97.4508 286.6228 0003687 318.3963  41.6997 15.31600981137653
