OBJECT_NAME,OBJECT_ID,EPOCH,MEAN_MOTION,ECCENTRICITY,INCLINATION,RA_OF_ASC_NODE,ARG_OF_PERICENTER,MEAN_ANOMALY,EPHEMERIS_TYPE,CLASSIFICATION_TYPE,NORAD_CAT_ID,ELEMENT_SET_NO,REV_AT_EPOCH,BSTAR,MEAN_MOTION_DOT,MEAN_MOTION_DDOT
FENGYUN 3D,2017-072A,2026-06-19T06:16:42.443904,14.19741501,.00025098,99.0130,144.7220,59.3043,300.8380,0,U,43010,999,44528,.27605428E-3,.538E-5,0
NOAA 20 (JPSS-1),2017-073A,2026-06-19T06:09:56.001888,14.19512061,.00003381,98.7770,109.7012,113.0011,247.1200,0,U,43013,999,44476,.36433603E-4,.33E-6,0
GOES 17,2018-022A,2026-06-19T00:28:24.505248,1.00269550,.00005077,0.9428,85.6763,27.5592,71.5925,0,U,43226,999,3044,0,-.189E-5,0
SENTINEL-3B,2018-039A,2026-06-19T03:40:49.185984,14.26735196,.00007179,98.6248,237.6575,92.4527,267.6735,0,U,43437,999,42440,.47868419E-4,.72E-6,0
FENGYUN 2H,2018-050A,2026-06-19T01:16:38.779104,1.00269392,.00019418,3.0369,79.0493,138.7340,148.0521,0,U,43491,999,2945,0,-.137E-5,0
METOP-C,2018-087A,2026-06-19T06:00:04.852224,14.21512608,.00018356,98.6644,229.8160,126.8899,233.2447,0,U,43689,999,39512,.51100648E-4,.68E-6,0
GEO-KOMPSAT-2A,2018-100A,2026-06-18T22:05:14.395200,1.00269167,.0001856,0.0487,155.6876,291.5734,279.4528,0,U,43823,999,2764,0,-.35E-5,0
METEOR-M2 2,2019-038A,2026-06-19T06:45:48.369312,14.24367771,.00020163,98.9146,157.5987,44.3231,315.8108,0,U,44387,999,36159,.17983454E-3,.37E-5,0
ARKTIKA-M 1,2021-016A,2026-06-17T11:46:36.471360,2.00622504,.72885287,63.2922,57.5948,269.9420,14.6012,0,U,47719,999,3879,0,-.21E-5,0
FENGYUN 3E,2021-062A,2026-06-19T07:34:36.835104,14.19904570,.00028686,98.7490,173.7005,82.5557,277.5946,0,U,49008,999,25688,.2500442E-4,.9E-7,0
GOES 18,2022-021A,2026-06-19T01:57:34.852896,1.00271434,.0000358,0.0138,113.6382,29.2247,16.8308,0,U,51850,999,661,0,.9E-6,0
NOAA 21 (JPSS-2),2022-150A,2026-06-19T06:57:12.170016,14.19565802,.00017875,98.7058,109.0437,149.2830,210.8452,0,U,54234,999,18684,.43894568E-4,.49E-6,0
METEOSAT-12 (MTG-I1),2022-170C,2026-06-19T06:01:50.682720,1.00273203,.00032649,0.7410,23.3589,71.0263,263.1532,0,U,54743,999,1299,0,-.14E-6,0
TIANMU-1 03,2023-039A,2026-06-19T05:58:31.643904,15.47334894,.0004141,97.5239,344.2983,93.8299,266.3424,0,U,55973,999,18115,.26004707E-3,.13194E-3,0
TIANMU-1 04,2023-039B,2026-06-19T07:15:18.948096,15.47934969,.00048361,97.5174,343.5077,90.1578,270.0226,0,U,55974,999,18117,.25898881E-3,.13419E-3,0
TIANMU-1 05,2023-039C,2026-06-19T07:04:05.848032,15.47261435,.00040644,97.5220,343.9598,110.1186,250.0501,0,U,55975,999,18114,.2526587E-3,.12783E-3,0
TIANMU-1 06,2023-039D,2026-06-19T07:20:22.202592,15.47838672,.00043888,97.5226,344.6096,105.0583,255.1153,0,U,55976,999,18117,.25854176E-3,.1335E-3,0
FENGYUN 3G,2023-055A,2026-06-19T07:04:12.664992,15.52710865,.00070188,49.9936,335.1614,305.3203,54.7107,0,U,56232,999,18033,.32537169E-3,.20089E-3,0
METEOR-M2 3,2023-091A,2026-06-19T06:38:18.474144,14.24046982,.00044631,98.6081,225.2122,150.1969,209.9465,0,U,57166,999,15481,.13650606E-4,-.12E-6,0
TIANMU-1 07,2023-101A,2026-06-19T06:12:27.569088,15.29827848,.00041701,97.2587,220.8796,117.3023,242.8643,0,U,57399,999,16196,.17724965E-3,.5047E-4,0
TIANMU-1 08,2023-101B,2026-06-19T06:58:36.278688,15.29832936,.0005648,97.2576,220.6812,110.0100,250.1749,0,U,57400,999,16196,.18193527E-3,.5184E-4,0
TIANMU-1 09,2023-101C,2026-06-19T08:08:50.836992,15.29865065,.00046794,97.2533,220.1435,121.8580,238.3117,0,U,57401,999,16197,.18627932E-3,.5314E-4,0
TIANMU-1 10,2023-101D,2026-06-19T07:22:18.551424,15.29836300,.00062634,97.2614,221.1646,120.6851,239.5008,0,U,57402,999,16196,.18264642E-3,.5205E-4,0
FENGYUN 3F,2023-111A,2026-06-19T07:11:23.084736,14.19939456,.00015837,98.6835,240.2689,92.0771,268.0586,0,U,57490,999,14916,.39823982E-4,.41E-6,0
ARKTIKA-M 2,2023-198A,2026-06-17T18:13:15.259296,2.00612717,.69023443,63.2243,154.2920,267.4286,18.7609,0,U,58584,999,1833,0,.145E-5,0
TIANMU-1 11,2023-205A,2026-06-19T06:45:23.195808,15.27013784,.00086855,97.3445,191.8056,10.1561,349.9852,0,U,58645,999,13784,.17329661E-3,.4525E-4,0
TIANMU-1 12,2023-205B,2026-06-19T06:02:46.955040,15.26978595,.00064657,97.3434,191.5317,356.0104,4.1082,0,U,58646,999,13782,.17532199E-3,.4572E-4,0
TIANMU-1 13,2023-205C,2026-06-19T06:49:24.530880,15.26832225,.00056529,97.3461,191.8365,333.1818,26.9128,0,U,58647,999,13782,.17879653E-3,.4642E-4,0
TIANMU-1 14,2023-205D,2026-06-19T08:02:23.325216,15.26877240,.00066071,97.3396,191.0665,337.1522,22.9422,0,U,58648,999,13783,.17711565E-3,.4605E-4,0
TIANMU-1 19,2023-208A,2026-06-19T07:29:44.156832,15.31600981,.0003687,97.4508,286.6228,318.3963,41.6997,0,U,58660,999,13765,.22387154E-3,.6753E-4,0
